start=new Date('2022-06-15T00:00:00.000Z').valueOf();
sats=[{"REF_FRAME":"TEME","SEMIMAJOR_AXIS":"6925.331","PERIOD":"95.592","DECAY_DATE":null,"OBJECT_ID":"2021-024BE","TIME_SYSTEM":"UTC","TLE_LINE2":"2 48029  53.0531 334.3349 0001701  58.4841 301.6314 15.06405625 69063","NORAD_CAT_ID":"48029","MEAN_ANOMALY":"301.6314","MEAN_MOTION":"15.06405625","ELEMENT_SET_NO":"999","MEAN_ELEMENT_THEORY":"SGP4","OBJECT_NAME":"STARLINK-2299","APOAPSIS":"548.374","RA_OF_ASC_NODE":"334.3349","EPOCH":"2022-06-14T19:22:40.715616","INCLINATION":"53.0531","COUNTRY_CODE":"US","OBJECT_TYPE":"PAYLOAD","FILE":"3496199","MEAN_MOTION_DOT":"0.00001965","EPHEMERIS_TYPE":"0","REV_AT_EPOCH":"6906","MEAN_MOTION_DDOT":"0.0000000000000","TLE_LINE1":"1 48029U 21024BE  22165.80741569  .00001965  00000-0  15074-3 0  9999","GP_ID":"206169544","ARG_OF_PERICENTER":"58.4841","SITE":"AFETR","ECCENTRICITY":"0.00017010","PERIAPSIS":"546.018","RCS_SIZE":"LARGE","BSTAR":"0.00015074000000","CENTER_NAME":"EARTH","LAUNCH_DATE":"2021-03-24","CLASSIFICATION_TYPE":"U"},{"REF_FRAME":"TEME","SEMIMAJOR_AXIS":"6925.357","PERIOD":"95.592","DECAY_DATE":null,"OBJECT_ID":"2021-024BF","TIME_SYSTEM":"UTC","TLE_LINE2":"2 48030  53.0548 339.1956 0001663  53.2318 306.8823 15.06397378 68931","NORAD_CAT_ID":"48030","MEAN_ANOMALY":"306.8823","MEAN_MOTION":"15.06397378","ELEMENT_SET_NO":"999","MEAN_ELEMENT_THEORY":"SGP4","OBJECT_NAME":"STARLINK-2268","APOAPSIS":"548.373","RA_OF_ASC_NODE":"339.1956","EPOCH":"2022-06-14T20:01:49.718208","INCLINATION":"53.0548","COUNTRY_CODE":"US","OBJECT_TYPE":"PAYLOAD","FILE":"3496199","MEAN_MOTION_DOT":"-0.00001450","EPHEMERIS_TYPE":"0","REV_AT_EPOCH":"6893","MEAN_MOTION_DDOT":"0.0000000000000","GP_ID":"206168298","TLE_LINE1":"1 48030U 21024BF  22165.83460322 -.00001450  00000-0 -78436-4 0  9992","ARG_OF_PERICENTER":"53.2318","SITE":"AFETR","ECCENTRICITY":"0.00016630","PERIAPSIS":"546.070","RCS_SIZE":"LARGE","BSTAR":"-0.00007843600000","CENTER_NAME":"EARTH","LAUNCH_DATE":"2021-03-24","CLASSIFICATION_TYPE":"U"},{"FILE":"3495970","MEAN_MOTION_DOT":"0.00001942","EPHEMERIS_TYPE":"0","REV_AT_EPOCH":"7049","GP_ID":"206138836","TLE_LINE1":"1 48031U 21024BG  22165.47476448  .00001942  00000-0  14924-3 0  9994","ARG_OF_PERICENTER":"47.7531","MEAN_MOTION_DDOT":"0.0000000000000","SITE":"AFETR","ECCENTRICITY":"0.00017690","RCS_SIZE":"LARGE","PERIAPSIS":"545.987","BSTAR":"0.00014924000000","CLASSIFICATION_TYPE":"U","LAUNCH_DATE":"2021-03-24","CENTER_NAME":"EARTH","PERIOD":"95.592","SEMIMAJOR_AXIS":"6925.347","REF_FRAME":"TEME","OBJECT_ID":"2021-024BG","DECAY_DATE":null,"MEAN_ANOMALY":"312.3608","MEAN_MOTION":"15.06400626","NORAD_CAT_ID":"48031","TIME_SYSTEM":"UTC","TLE_LINE2":"2 48031  53.0564 225.8155 0001769  47.7531 312.3608 15.06400626 70492","MEAN_ELEMENT_THEORY":"SGP4","ELEMENT_SET_NO":"999","RA_OF_ASC_NODE":"225.8155","APOAPSIS":"548.437","OBJECT_NAME":"STARLINK-2267","EPOCH":"2022-06-14T11:23:39.651072","INCLINATION":"53.0564","OBJECT_TYPE":"PAYLOAD","COUNTRY_CODE":"US"},{"EPOCH":"2022-06-14T17:31:13.709856","OBJECT_NAME":"STARLINK-2286","APOAPSIS":"548.266","RA_OF_ASC_NODE":"334.6763","COUNTRY_CODE":"US","OBJECT_TYPE":"PAYLOAD","INCLINATION":"53.0570","DECAY_DATE":null,"OBJECT_ID":"2021-024BJ","REF_FRAME":"TEME","SEMIMAJOR_AXIS":"6925.360","PERIOD":"95.592","ELEMENT_SET_NO":"999","MEAN_ELEMENT_THEORY":"SGP4","TLE_LINE2":"2 48033  53.0570 334.6763 0001503  81.5941 278.5218 15.06396120 69055","TIME_SYSTEM":"UTC","NORAD_CAT_ID":"48033","MEAN_MOTION":"15.06396120","MEAN_ANOMALY":"278.5218","PERIAPSIS":"546.185","RCS_SIZE":"LARGE","ECCENTRICITY":"0.00015030","LAUNCH_DATE":"2021-03-24","CENTER_NAME":"EARTH","CLASSIFICATION_TYPE":"U","BSTAR":"-0.00006174400000","MEAN_MOTION_DOT":"-0.00001201","REV_AT_EPOCH":"6905","EPHEMERIS_TYPE":"0","FILE":"3496199","SITE":"AFETR","MEAN_MOTION_DDOT":"0.0000000000000","TLE_LINE1":"1 48033U 21024BJ  22165.73001979 -.00001201  00000-0 -61744-4 0  9991","ARG_OF_PERICENTER":"81.5941","GP_ID":"206169298"},{"PERIOD":"95.593","REF_FRAME":"TEME","SEMIMAJOR_AXIS":"6925.370","DECAY_DATE":null,"OBJECT_ID":"2021-024BK","MEAN_ANOMALY":"295.7981","MEAN_MOTION":"15.06392976","TLE_LINE2":"2 48034  53.0558 334.2946 0001469  64.3159 295.7981 15.06392976 69066","TIME_SYSTEM":"UTC","NORAD_CAT_ID":"48034","MEAN_ELEMENT_THEORY":"SGP4","ELEMENT_SET_NO":"999","APOAPSIS":"548.252","RA_OF_ASC_NODE":"334.2946","OBJECT_NAME":"STARLINK-2288","EPOCH":"2022-06-14T19:33:18.340704","INCLINATION":"53.0558","COUNTRY_CODE":"US","OBJECT_TYPE":"PAYLOAD","FILE":"3496199","EPHEMERIS_TYPE":"0","MEAN_MOTION_DOT":"-0.00000792","REV_AT_EPOCH":"6906","TLE_LINE1":"1 48034U 21024BK  22165.81479561 -.00000792  00000-0 -34253-4 0  9996","ARG_OF_PERICENTER":"64.3159","GP_ID":"206170044","MEAN_MOTION_DDOT":"0.0000000000000","SITE":"AFETR","ECCENTRICITY":"0.00014690","RCS_SIZE":"LARGE","PERIAPSIS":"546.218","BSTAR":"-0.00003425300000","CENTER_NAME":"EARTH","LAUNCH_DATE":"2021-03-24","CLASSIFICATION_TYPE":"U"},{"EPOCH":"2022-06-14T18:08:22.537824","RA_OF_ASC_NODE":"334.5676","APOAPSIS":"548.377","OBJECT_NAME":"STARLINK-2295","OBJECT_TYPE":"PAYLOAD","COUNTRY_CODE":"US","INCLINATION":"53.0568","OBJECT_ID":"2021-024BM","DECAY_DATE":null,"PERIOD":"95.592","SEMIMAJOR_AXIS":"6925.346","REF_FRAME":"TEME","MEAN_ELEMENT_THEORY":"SGP4","ELEMENT_SET_NO":"999","MEAN_ANOMALY":"289.1021","MEAN_MOTION":"15.06400737","NORAD_CAT_ID":"48036","TLE_LINE2":"2 48036  53.0568 334.5676 0001683  71.0150 289.1021 15.06400737 69052","TIME_SYSTEM":"UTC","RCS_SIZE":"LARGE","PERIAPSIS":"546.046","ECCENTRICITY":"0.00016830","CLASSIFICATION_TYPE":"U","CENTER_NAME":"EARTH","LAUNCH_DATE":"2021-03-24","BSTAR":"0.00001453600000","MEAN_MOTION_DOT":"-0.00000065","REV_AT_EPOCH":"6905","EPHEMERIS_TYPE":"0","FILE":"3496199","SITE":"AFETR","TLE_LINE1":"1 48036U 21024BM  22165.75581641 -.00000065  00000-0  14536-4 0  9998","GP_ID":"206168797","ARG_OF_PERICENTER":"71.0150","MEAN_MOTION_DDOT":"0.0000000000000"},{"NORAD_CAT_ID":"48092","TLE_LINE2":"2 48092  53.0549  99.5166 0001676  66.1365 293.9799 15.06402807 67895","TIME_SYSTEM":"UTC","MEAN_ANOMALY":"293.9799","MEAN_MOTION":"15.06402807","ELEMENT_SET_NO":"999","MEAN_ELEMENT_THEORY":"SGP4","SEMIMAJOR_AXIS":"6925.340","REF_FRAME":"TEME","PERIOD":"95.592","OBJECT_ID":"2021-027A","DECAY_DATE":null,"INCLINATION":"53.0549","OBJECT_TYPE":"PAYLOAD","COUNTRY_CODE":"US","OBJECT_NAME":"STARLINK-2048","RA_OF_ASC_NODE":"99.5166","APOAPSIS":"548.366","EPOCH":"2022-06-14T19:51:15.617376","MEAN_MOTION_DDOT":"0.0000000000000","TLE_LINE1":"1 48092U 21027A   22165.82726409 -.00000284  00000-0 -16807-6 0  9993","ARG_OF_PERICENTER":"66.1365","GP_ID":"206169804","SITE":"AFETR","FILE":"3496199","MEAN_MOTION_DOT":"-0.00000284","REV_AT_EPOCH":"6789","EPHEMERIS_TYPE":"0","BSTAR":"-0.00000016807000","CLASSIFICATION_TYPE":"U","CENTER_NAME":"EARTH","LAUNCH_DATE":"2021-04-07","ECCENTRICITY":"0.00016760","PERIAPSIS":"546.044","RCS_SIZE":"LARGE"},{"PERIOD":"95.592","REF_FRAME":"TEME","SEMIMAJOR_AXIS":"6925.361","DECAY_DATE":null,"OBJECT_ID":"2021-027B","MEAN_ANOMALY":"310.4782","MEAN_MOTION":"15.06395920","TLE_LINE2":"2 48093  53.0529 164.9041 0001801  49.6364 310.4782 15.06395920 66970","TIME_SYSTEM":"UTC","NORAD_CAT_ID":"48093","MEAN_ELEMENT_THEORY":"SGP4","ELEMENT_SET_NO":"999","APOAPSIS":"548.473","RA_OF_ASC_NODE":"164.9041","OBJECT_NAME":"STARLINK-2404","EPOCH":"2022-06-14T17:21:59.123808","INCLINATION":"53.0529","COUNTRY_CODE":"US","OBJECT_TYPE":"PAYLOAD","FILE":"3496199","MEAN_MOTION_DOT":"0.00000533","EPHEMERIS_TYPE":"0","REV_AT_EPOCH":"6697","TLE_LINE1":"1 48093U 21027B   22165.72360097  .00000533  00000-0  54676-4 0  9999","GP_ID":"206169551","ARG_OF_PERICENTER":"49.6364","MEAN_MOTION_DDOT":"0.0000000000000","SITE":"AFETR","ECCENTRICITY":"0.00018010","RCS_SIZE":"LARGE","PERIAPSIS":"545.979","BSTAR":"0.00005467600000","LAUNCH_DATE":"2021-04-07","CENTER_NAME":"EARTH","CLASSIFICATION_TYPE":"U"},{"EPOCH":"2022-06-14T11:25:01.805376","RA_OF_ASC_NODE":"175.8252","APOAPSIS":"548.433","OBJECT_NAME":"STARLINK-2412","OBJECT_TYPE":"PAYLOAD","COUNTRY_CODE":"US","INCLINATION":"53.0548","OBJECT_ID":"2021-027C","DECAY_DATE":null,"PERIOD":"95.593","SEMIMAJOR_AXIS":"6925.407","REF_FRAME":"TEME","MEAN_ELEMENT_THEORY":"SGP4","ELEMENT_SET_NO":"999","MEAN_MOTION":"15.06380969","MEAN_ANOMALY":"300.7279","NORAD_CAT_ID":"48094","TIME_SYSTEM":"UTC","TLE_LINE2":"2 48094  53.0548 175.8252 0001676  59.3876 300.7279 15.06380969 66805","RCS_SIZE":"LARGE","PERIAPSIS":"546.111","ECCENTRICITY":"0.00016760","CLASSIFICATION_TYPE":"U","CENTER_NAME":"EARTH","LAUNCH_DATE":"2021-04-07","BSTAR":"-0.00016901000000","EPHEMERIS_TYPE":"0","MEAN_MOTION_DOT":"-0.00002797","REV_AT_EPOCH":"6680","FILE":"3495970","SITE":"AFETR","TLE_LINE1":"1 48094U 21027C   22165.47571534 -.00002797  00000-0 -16901-3 0  9996","ARG_OF_PERICENTER":"59.3876","GP_ID":"206138601","MEAN_MOTION_DDOT":"0.0000000000000"},{"OBJECT_ID":"2021-027D","DECAY_DATE":null,"SEMIMAJOR_AXIS":"6925.348","REF_FRAME":"TEME","PERIOD":"95.592","ELEMENT_SET_NO":"999","MEAN_ELEMENT_THEORY":"SGP4","NORAD_CAT_ID":"48095","TIME_SYSTEM":"UTC","TLE_LINE2":"2 48095  53.0532 174.5891 0001665  54.8095 305.3049 15.06400275 66859","MEAN_MOTION":"15.06400275","MEAN_ANOMALY":"305.3049","EPOCH":"2022-06-14T17:57:46.500768","OBJECT_NAME":"STARLINK-2414","RA_OF_ASC_NODE":"174.5891","APOAPSIS":"548.366","OBJECT_TYPE":"PAYLOAD","COUNTRY_CODE":"US","INCLINATION":"53.0532","MEAN_MOTION_DOT":"0.00000076","REV_AT_EPOCH":"6685","EPHEMERIS_TYPE":"0","FILE":"3496199","SITE":"AFETR","MEAN_MOTION_DDOT":"0.0000000000000","TLE_LINE1":"1 48095U 21027D   22165.74845487  .00000076  00000-0  24004-4 0  9998","GP_ID":"206168555","ARG_OF_PERICENTER":"54.8095","PERIAPSIS":"546.060","RCS_SIZE":"MEDIUM","ECCENTRICITY":"0.00016650","CLASSIFICATION_TYPE":"U","LAUNCH_DATE":"2021-04-07","CENTER_NAME":"EARTH","BSTAR":"0.00002400400000"}];
